OBJECT_NAME,OBJECT_ID,EPOCH,MEAN_MOTION,ECCENTRICITY,INCLINATION,RA_OF_ASC_NODE,ARG_OF_PERICENTER,MEAN_ANOMALY,EPHEMERIS_TYPE,CLASSIFICATION_TYPE,NORAD_CAT_ID,ELEMENT_SET_NO,REV_AT_EPOCH,BSTAR,MEAN_MOTION_DOT,MEAN_MOTION_DDOT
INTELSAT 23 (IS-23),2012-057A,2026-07-18T07:50:23.779968,1.00262826,.00006857,0.0111,334.8431,273.6492,112.1777,0,U,38867,999,5026,0,-.293E-5,0
FM-6,2013-058A,2026-07-18T14:07:38.839008,1.00278676,.00014958,0.0130,35.9612,147.9640,208.0270,0,U,39360,999,4638,0,-.24E-6,0
INTELSAT 30 (IS-30),2014-062A,2026-07-18T08:59:38.556384,1.00272186,.00014873,0.0185,58.3463,331.0650,306.6267,0,U,40271,999,710,0,-.159E-5,0
DIRECTV 14,2014-078B,2026-07-18T12:45:14.567040,1.00270328,.00003061,0.0122,50.1193,325.7336,12.5409,0,U,40333,999,4235,0,-.132E-5,0
DIRECTV 15,2015-026A,2026-07-18T12:12:12.068928,1.00269042,.00003505,0.0213,78.2621,299.1854,359.0227,0,U,40663,999,4077,0,-.109E-5,0
SKY MEXICO-1,2015-026B,2026-07-18T12:50:59.017056,1.00272780,.00023876,0.0163,71.3064,61.2718,277.7044,0,U,40664,999,4076,0,-.242E-5,0
INTELSAT 34 (IS-34),2015-039A,2026-07-18T11:15:05.652288,1.00272150,.00005389,0.0092,13.6923,357.3921,38.4636,0,U,40874,999,3994,0,-.293E-5,0
INTELSAT 31 (IS-31),2016-035A,2026-07-18T08:59:38.556384,1.00272179,.00010022,0.0008,144.4513,146.0799,45.5043,0,U,41581,999,3699,0,-.159E-5,0
INTELSAT 36 (IS-36),2016-053A,2026-07-18T04:13:38.521056,1.00272889,.00023607,0.0101,31.5291,315.0581,81.2885,0,U,41747,999,3626,0,-.33E-6,0
INTELSAT 32E (IS-32E),2017-007B,2026-07-18T11:18:35.316576,1.00265377,.0000832,0.0183,53.6670,328.3581,40.7203,0,U,41945,999,3453,0,0,0
INTELSAT 35E (IS-35E),2017-041A,2026-07-18T11:20:57.589728,1.00272694,.00019348,0.0177,59.5792,58.5100,313.9219,0,U,42818,999,3312,0,-.245E-5,0
INTELSAT 37E (IS-37E),2017-059A,2026-07-18T09:42:47.628288,1.00272890,.00026472,0.0152,79.3919,40.6491,303.8542,0,U,42950,999,3237,0,-.148E-5,0
AZERSPACE 2 (IS-38),2018-074A,2026-07-18T13:26:25.619136,1.00269815,.00014686,0.0170,47.2856,60.5324,75.2748,0,U,43632,999,2876,0,0,0
HORIZONS-3E,2018-074B,2026-07-18T13:42:38.687040,1.00271113,.00007167,0.0358,256.1104,30.1678,24.7386,0,U,43633,999,2865,0,-.38E-6,0
AT&T T-16,2019-034A,2026-07-18T11:14:38.819904,1.00274498,.0000707,0.0135,75.8268,286.9970,1.2519,0,U,44333,999,2594,0,-.123E-5,0
INTELSAT 39 (IS-39),2019-049B,2026-07-18T10:05:52.914912,1.00271488,.00009038,0.0160,58.7592,296.7568,154.1129,0,U,44476,999,2544,0,.26E-6,0
GALAXY 30 (G-30),2020-056C,2026-07-18T14:15:38.763360,1.00272702,.00022223,0.0188,55.7560,63.4658,266.0802,0,U,46114,999,2160,0,.3E-6,0
GALAXY 33 (G-33),2022-128A,2026-07-18T14:15:38.763360,1.00270210,.00018873,0.0180,64.8986,48.9772,263.4088,0,U,54026,999,1405,0,.72E-6,0
GALAXY 34 (G-34),2022-128B,2026-07-18T11:22:38.762400,1.00268020,.00015872,0.0110,77.0016,51.6777,209.2388,0,U,54027,999,1422,0,.52E-6,0
GALAXY 31 (G-31),2022-153A,2026-07-18T14:07:38.839008,1.00272302,.00011295,0.0206,94.6525,24.7798,267.8499,0,U,54243,999,744,0,.6E-7,0
GALAXY 32 (G-32),2022-153B,2026-07-18T12:47:36.840192,1.00272392,.00013879,0.0133,54.6817,353.5428,349.0126,0,U,54244,999,1345,0,-.182E-5,0
GALAXY 35 (G-35),2022-170A,2026-07-18T12:46:59.399616,1.00272220,.00019053,0.0154,92.9877,23.4325,278.5477,0,U,54741,999,1320,0,-.17E-5,0
GALAXY 36 (G-36),2022-170B,2026-07-18T12:48:06.791616,1.00271825,.00026548,0.0182,141.4627,317.0455,300.8518,0,U,54742,999,1308,0,-.192E-5,0
GALAXY 37 (G-37),2023-112A,2026-07-18T14:15:38.763360,1.00271956,.0002083,0.0164,59.8517,55.7407,267.7010,0,U,57493,999,1085,0,.41E-6,0
