INTELSAT 23 (IS-23)     
1 38867U 12057A   26199.32666412 -.00000293  00000+0  00000+0 0  9997
2 38867   0.0111 334.8431 0000685 273.6492 112.1777  1.00262826 50261
FM-6                    
1 39360U 13058A   26199.58864397 -.00000024  00000+0  00000+0 0  9990
2 39360   0.0130  35.9612 0001495 147.9640 208.0270  1.00278676 46380
INTELSAT 30 (IS-30)     
1 40271U 14062A   26199.37475181 -.00000159  00000+0  00000+0 0  9994
2 40271   0.0185  58.3463 0001487 331.0650 306.6267  1.00272186  7102
DIRECTV 14              
1 40333U 14078B   26199.53141860 -.00000132  00000+0  00000+0 0  9993
2 40333   0.0122  50.1193 0000306 325.7336  12.5409  1.00270328 42355
DIRECTV 15              
1 40663U 15026A   26199.50847302 -.00000109  00000+0  00000+0 0  9998
2 40663   0.0213  78.2621 0000350 299.1854 359.0227  1.00269042 40779
SKY MEXICO-1            
1 40664U 15026B   26199.53540529 -.00000242  00000+0  00000+0 0  9991
2 40664   0.0163  71.3064 0002387  61.2718 277.7044  1.00272780 40763
INTELSAT 34 (IS-34)     
1 40874U 15039A   26199.46881542 -.00000293  00000+0  00000+0 0  9999
2 40874   0.0092  13.6923 0000538 357.3921  38.4636  1.00272150 39949
INTELSAT 31 (IS-31)     
1 41581U 16035A   26199.37475181 -.00000159  00000+0  00000+0 0  9991
2 41581   0.0008 144.4513 0001002 146.0799  45.5043  1.00272179 36997
INTELSAT 36 (IS-36)     
1 41747U 16053A   26199.17614029 -.00000033  00000+0  00000+0 0  9990
2 41747   0.0101  31.5291 0002360 315.0581  81.2885  1.00272889 36268
INTELSAT 32E (IS-32E)   
1 41945U 17007B   26199.47124209  .00000000  00000+0  00000+0 0  9992
2 41945   0.0183  53.6670 0000832 328.3581  40.7203  1.00265377 34539
INTELSAT 35E (IS-35E)   
1 42818U 17041A   26199.47288877 -.00000245  00000+0  00000+0 0  9994
2 42818   0.0177  59.5792 0001934  58.5100 313.9219  1.00272694 33121
INTELSAT 37E (IS-37E)   
1 42950U 17059A   26199.40471792 -.00000148  00000+0  00000+0 0  9995
2 42950   0.0152  79.3919 0002647  40.6491 303.8542  1.00272890 32370
AZERSPACE 2 (IS-38)     
1 43632U 18074A   26199.56001874  .00000000  00000+0  00000+0 0  9994
2 43632   0.0170  47.2856 0001468  60.5324  75.2748  1.00269815 28767
HORIZONS-3E             
1 43633U 18074B   26199.57128110 -.00000038  00000+0  00000+0 0  9991
2 43633   0.0358 256.1104 0000716  30.1678  24.7386  1.00271113 28652
AT&T T-16               
1 44333U 19034A   26199.46850486 -.00000123  00000+0  00000+0 0  9997
2 44333   0.0135  75.8268 0000707 286.9970   1.2519  1.00274498 25942
INTELSAT 39 (IS-39)     
1 44476U 19049B   26199.42075133  .00000026  00000+0  00000+0 0  9996
2 44476   0.0160  58.7592 0000903 296.7568 154.1129  1.00271488 25444
GALAXY 30 (G-30)        
1 46114U 20056C   26199.59419865  .00000030  00000+0  00000+0 0  9994
2 46114   0.0188  55.7560 0002222  63.4658 266.0802  1.00272702 21607
GALAXY 33 (G-33)        
1 54026U 22128A   26199.59419865  .00000072  00000+0  00000+0 0  9993
2 54026   0.0180  64.8986 0001887  48.9772 263.4088  1.00270210 14054
GALAXY 34 (G-34)        
1 54027U 22128B   26199.47405975  .00000052  00000+0  00000+0 0  9996
2 54027   0.0110  77.0016 0001587  51.6777 209.2388  1.00268020 14227
GALAXY 31 (G-31)        
1 54243U 22153A   26199.58864397  .00000006  00000+0  00000+0 0  9992
2 54243   0.0206  94.6525 0001129  24.7798 267.8499  1.00272302  7446
GALAXY 32 (G-32)        
1 54244U 22153B   26199.53306528 -.00000182  00000+0  00000+0 0  9991
2 54244   0.0133  54.6817 0001387 353.5428 349.0126  1.00272392 13452
GALAXY 35 (G-35)        
1 54741U 22170A   26199.53263194 -.00000170  00000+0  00000+0 0  9990
2 54741   0.0154  92.9877 0001905  23.4325 278.5477  1.00272220 13201
GALAXY 36 (G-36)        
1 54742U 22170B   26199.53341194 -.00000192  00000+0  00000+0 0  9992
2 54742   0.0182 141.4627 0002654 317.0455 300.8518  1.00271825 13085
GALAXY 37 (G-37)        
1 57493U 23112A   26199.59419865  .00000041  00000+0  00000+0 0  9994
2 57493   0.0164  59.8517 0002083  55.7407 267.7010  1.00271956 10855
